[{"OBJECT_NAME":"STARLINK-36267","OBJECT_ID":"2025-304G","EPOCH":"2026-03-09T16:36:04.017024","MEAN_MOTION":14.98334276,"ECCENTRICITY":0.00031896,"INCLINATION":70.0015,"RA_OF_ASC_NODE":174.5061,"ARG_OF_PERICENTER":268.4866,"MEAN_ANOMALY":91.5927,"EPHEMERIS_TYPE":0,"CLASSIFICATION_TYPE":"U","NORAD_CAT_ID":67198,"ELEMENT_SET_NO":999,"REV_AT_EPOCH":1385,"BSTAR":0.00069265683,"MEAN_MOTION_DOT":8.182e-5,"MEAN_MOTION_DDOT":0},{"OBJECT_NAME":"IRIDIUM 33 DEB","OBJECT_ID":"1997-051CX","EPOCH":"2026-03-09T17:43:24.588192","MEAN_MOTION":14.98094004,"ECCENTRICITY":0.00015404,"INCLINATION":86.3865,"RA_OF_ASC_NODE":350.5598,"ARG_OF_PERICENTER":95.4765,"MEAN_ANOMALY":329.7207,"EPHEMERIS_TYPE":0,"CLASSIFICATION_TYPE":"U","NORAD_CAT_ID":34088,"ELEMENT_SET_NO":999,"REV_AT_EPOCH":90041,"BSTAR":0.0032183732,"MEAN_MOTION_DOT":0.00038264,"MEAN_MOTION_DDOT":0}]
